MEAN_MOTION;ECCENTRICITY;INCLINATION;RA_OF_ASC_NODE;ARG_OF_PERICENTER;MEAN_ANOMALY;BSTAR;MEAN_MOTION_DOT;MEAN_MOTION_DDOT;TYPE
1.00240456;0.0008833;10.4741;35.7817;304.7757;65.4373;0;-1.56E-6;0;Intelsat
1.00240365;0.0008794;10.4752;35.7738;305.1765;67.7258;0;-1.6E-6;0;Intelsat
1.00240378;0.0008779;10.4758;35.7697;305.2765;259.5813;0;-1.62E-6;0;Intelsat
1.00240306;0.0008762;10.4763;35.766;305.5331;70.038;0;-1.63E-6;0;Intelsat
1.00240311;0.0008748;10.4768;35.7627;305.5982;225.4484;0;-1.65E-6;0;Intelsat
1.00240225;0.0008734;10.4775;35.7582;305.8649;72.3917;0;-1.66E-6;0;Intelsat
1.00240215;0.0008721;10.478;35.7544;305.9457;253.6031;0;-1.68E-6;0;Intelsat
1.0024007;0.0008683;10.4802;35.7398;306.5767;216.4459;0;-1.72E-6;0;Intelsat
1.00240061;0.0008683;10.4802;35.7394;306.5833;232.9637;0;-1.72E-6;0;Intelsat
1.00239986;0.0008669;10.4813;35.7316;306.9269;241.7681;0;-1.73E-6;0;Intelsat
1.00239902;0.0008658;10.4824;35.7241;307.2688;235.5362;0;-1.74E-6;0;Intelsat
1.00239846;0.000865;10.483;35.7202;307.5116;58.3049;0;-1.74E-6;0;Intelsat
1.00239709;0.0008631;10.4841;35.7126;307.9768;60.5189;0;-1.74E-6;0;Intelsat
1.00239657;0.0008616;10.4853;35.705;308.4455;62.7188;0;-1.74E-6;0;Intelsat
1.00239606;0.0008611;10.4858;35.7013;308.692;243.8178;0;-1.74E-6;0;Intelsat
1.00239466;0.0008594;10.4869;35.6936;309.1083;252.9847;0;-1.74E-6;0;Intelsat
1.00239459;0.0008592;10.4875;35.6899;309.231;67.3174;0;-1.74E-6;0;Intelsat
1.00239409;0.0008586;10.4881;35.6862;309.4445;248.404;0;-1.73E-6;0;Intelsat
1.00239376;0.0008582;10.4887;35.6823;309.6608;69.5066;0;-1.73E-6;0;Intelsat
1.0023932;0.0008577;10.4892;35.6791;309.9069;224.7365;0;-1.73E-6;0;Intelsat
1.00239209;0.000856;10.4904;35.6712;310.4655;246.7327;0;-1.72E-6;0;Intelsat
1.00238997;0.000853;10.4923;35.6587;311.2538;133.3762;0;-1.7E-6;0;Intelsat
1.00238988;0.0008517;10.4927;35.6564;311.4709;250.2288;0;-1.69E-6;0;Intelsat
1.00238957;0.0008501;10.4935;35.6512;311.7028;138.5811;0;-1.68E-6;0;Intelsat
1.00238922;0.0008496;10.4938;35.6493;311.8805;236.9105;0;-1.68E-6;0;Intelsat
1.0023877;0.0008445;10.4955;35.6382;312.6516;56.6985;0;-1.67E-6;0;Intelsat
1.00238709;0.0008442;10.4961;35.6345;312.9293;237.7719;0;-1.66E-6;0;Intelsat
1.00238627;0.0008409;10.4973;35.6271;313.478;241.9371;0;-1.66E-6;0;Intelsat
1.00238525;0.0008374;10.4984;35.6198;313.9748;242.0792;0;-1.66E-6;0;Intelsat
1.00238324;0.0008294;10.5006;35.6048;315.0248;253.2751;0;-1.67E-6;0;Intelsat
1.00238213;0.0008251;10.5017;35.5974;315.4979;254.1738;0;-1.69E-6;0;Intelsat
1.00238106;0.0008203;10.5028;35.59;315.9574;251.3262;0;-1.71E-6;0;Intelsat
1.00238016;0.0008159;10.5039;35.583;316.3399;227.1906;0;-1.74E-6;0;Intelsat
1.00237917;0.0008112;10.505;35.575;316.7682;250.5001;0;-1.78E-6;0;Intelsat
1.00237814;0.0008074;10.5061;35.5679;317.0884;231.8111;0;-1.81E-6;0;Intelsat
1.00237666;0.0008032;10.5072;35.5603;317.4256;234.1318;0;-1.84E-6;0;Intelsat
1.00237547;0.0007992;10.5083;35.5523;317.734;254.6478;0;-1.88E-6;0;Intelsat
1.00237505;0.0007992;10.5088;35.549;317.7876;57.7753;0;-1.89E-6;0;Intelsat
1.00237439;0.0007974;10.5094;35.5452;317.8617;239.5988;0;-1.9E-6;0;Intelsat
1.00237309;0.0007946;10.5105;35.5379;318.1406;233.1536;0;-1.92E-6;0;Intelsat
1.00237194;0.0007921;10.5115;35.5308;318.43;217.9264;0;-1.94E-6;0;Intelsat
1.00237049;0.0007897;10.5127;35.5229;318.7509;238.8038;0;-1.95E-6;0;Intelsat
1.0023689;0.0007872;10.5137;35.5157;319.063;233.5926;0;-1.95E-6;0;Intelsat
1.00236907;0.0007872;10.5138;35.5154;319.0599;249.3843;0;-1.95E-6;0;Intelsat
1.00236757;0.0007854;10.5148;35.5082;319.3638;242.4268;0;-1.96E-6;0;Intelsat
1.0023659;0.0007828;10.5159;35.5008;319.785;241.3662;0;-1.96E-6;0;Intelsat
1.00236472;0.0007807;10.5169;35.4937;320.1874;229.528;0;-1.96E-6;0;Intelsat
1.0023633;0.0007786;10.518;35.4864;320.6058;230.4947;0;-1.95E-6;0;Intelsat
1.00236149;0.0007769;10.5191;35.4791;321.0844;230.7767;0;-1.95E-6;0;Intelsat
1.00235991;0.0007741;10.5203;35.4716;321.6075;236.116;0;-1.94E-6;0;Intelsat
1.00235827;0.0007714;10.5213;35.4644;322.1151;237.1708;0;-1.93E-6;0;Intelsat
1.00235798;0.000772;10.5215;35.463;322.0626;303.4652;0;-1.92E-6;0;Intelsat
1.00235721;0.0007718;10.5232;35.4519;322.8007;132.5593;0;-1.9E-6;0;Intelsat
1.00235551;0.0007727;10.5237;35.4482;322.9584;313.1214;0;-1.9E-6;0;Intelsat
1.00235395;0.0007714;10.5248;35.4409;323.3517;318.6502;0;-1.89E-6;0;Intelsat
1.00235252;0.000769;10.5259;35.4336;323.7602;324.2493;0;-1.88E-6;0;Intelsat
1.00235094;0.000767;10.5269;35.4268;324.1758;304.7913;0;-1.87E-6;0;Intelsat
1.00234959;0.0007638;10.528;35.4196;324.6471;307.4961;0;-1.87E-6;0;Intelsat
1.0023496;0.0007651;10.5286;35.4153;324.7983;158.9796;0;-1.87E-6;0;Intelsat
1.00234917;0.0007653;10.5287;35.4144;324.8357;202.389;0;-1.87E-6;0;Intelsat
1.00234853;0.0007648;10.5291;35.4121;325.0093;314.6254;0;-1.87E-6;0;Intelsat
1.00234697;0.0007625;10.5299;35.4066;325.2672;230.4714;0;-1.88E-6;0;Intelsat
1.00234553;0.0007587;10.5309;35.3992;325.6434;232.7646;0;-1.89E-6;0;Intelsat
1.00234532;0.0007586;10.5311;35.3979;325.7115;299.8601;0;-1.9E-6;0;Intelsat
1.0023441;0.0007546;10.532;35.3917;325.9973;242.3828;0;-1.92E-6;0;Intelsat
1.00234251;0.0007511;10.5331;35.3842;326.2931;244.7234;0;-1.94E-6;0;Intelsat
1.00234113;0.0007476;10.5341;35.377;326.5334;236.1979;0;-1.97E-6;0;Intelsat
1.00233945;0.0007435;10.5351;35.3699;326.7541;216.3958;0;-2.01E-6;0;Intelsat
1.0023381;0.0007394;10.5361;35.3625;326.946;215.6934;0;-2.04E-6;0;Intelsat
1.00233641;0.0007356;10.5372;35.3551;327.1102;214.6288;0;-2.08E-6;0;Intelsat
1.00233459;0.0007325;10.5382;35.3481;327.2513;198.0024;0;-2.1E-6;0;Intelsat
1.00233279;0.0007307;10.5392;35.3407;327.2863;200.5995;0;-2.13E-6;0;Intelsat
1.00233096;0.0007289;10.5404;35.3328;327.3219;229.1147;0;-2.15E-6;0;Intelsat
1.00232932;0.000728;10.5413;35.326;327.3541;205.8547;0;-2.16E-6;0;Intelsat
1.00232764;0.000725;10.5424;35.3181;327.5108;237.284;0;-2.17E-6;0;Intelsat
1.00232567;0.0007235;10.5434;35.3115;327.6318;210.8761;0;-2.18E-6;0;Intelsat
1.00232342;0.0007231;10.5445;35.304;327.7139;223.4927;0;-2.18E-6;0;Intelsat
1.00232145;0.0007224;10.5455;35.2968;327.8403;215.9617;0;-2.19E-6;0;Intelsat
1.00232133;0.0007212;10.5455;35.2963;327.9051;238.1818;0;-2.19E-6;0;Intelsat
1.00231847;0.0007253;10.5469;35.2863;327.7933;14.1138;0;-2.18E-6;0;Intelsat
1.00231755;0.0007237;10.5475;35.2821;328.0067;221.093;0;-2.18E-6;0;Intelsat
1.00231561;0.0007224;10.5486;35.2749;328.2556;223.493;0;-2.17E-6;0;Intelsat
1.00231356;0.0007208;10.5496;35.2675;328.5081;225.8721;0;-2.17E-6;0;Intelsat
1.00231153;0.0007194;10.5507;35.2602;328.8071;228.2167;0;-2.15E-6;0;Intelsat
1.00230932;0.0007178;10.5517;35.253;329.1123;230.5027;0;-2.14E-6;0;Intelsat
1.00230783;0.000717;10.5526;35.2462;329.4598;206.9878;0;-2.13E-6;0;Intelsat
1.00230567;0.0007144;10.5538;35.2385;329.8262;230.9931;0;-2.12E-6;0;Intelsat
1.00230391;0.0007123;10.5547;35.2316;330.1084;211.6351;0;-2.11E-6;0;Intelsat
1.00230188;0.0007105;10.5558;35.2244;330.4228;208.2728;0;-2.11E-6;0;Intelsat
1.00229998;0.0007059;10.5569;35.217;330.776;216.2008;0;-2.11E-6;0;Intelsat
1.00229933;0.0007075;10.5573;35.2138;330.7967;11.6399;0;-2.11E-6;0;Intelsat
1.00229788;0.000704;10.558;35.2097;331.037;218.5658;0;-2.11E-6;0;Intelsat
1.00229584;0.0007011;10.5591;35.2023;331.3228;220.9274;0;-2.13E-6;0;Intelsat
1.00229518;0.0007024;10.5595;35.1992;331.343;16.3468;0;-2.13E-6;0;Intelsat
1.002294;0.0007005;10.5601;35.1949;331.4562;223.433;0;-2.14E-6;0;Intelsat
1.0022921;0.0006986;10.5612;35.1875;331.7258;225.7897;0;-2.17E-6;0;Intelsat
1.00229124;0.0006977;10.5617;35.1841;331.8785;21.0753;0;-2.18E-6;0;Intelsat
1.00228947;0.0006955;10.5626;35.1765;332.0501;23.5692;0;-2.21E-6;0;Intelsat
1.0022883;0.0006933;10.5632;35.1728;332.046;204.8844;0;-2.23E-6;0;Intelsat
1.00228596;0.0006916;10.5642;35.1653;332.2126;207.3211;0;-2.27E-6;0;Intelsat
1.00228483;0.0006908;10.5647;35.1616;332.3049;28.5483;0;-2.29E-6;0;Intelsat
1.00228292;0.000688;10.5657;35.154;332.293;31.2114;0;-2.32E-6;0;Intelsat
1.00228167;0.0006855;10.566;35.15;332.2111;229.1465;0;-2.34E-6;0;Intelsat
1.00227843;0.0006816;10.5675;35.139;332.2508;36.5255;0;-2.38E-6;0;Intelsat
1.00227621;0.0006791;10.5684;35.1321;332.2083;13.3036;0;-2.4E-6;0;Intelsat
1.00227383;0.0006764;10.5695;35.1246;332.1718;15.9921;0;-2.41E-6;0;Intelsat
1.0022714;0.0006743;10.5704;35.1172;332.1158;18.6398;0;-2.43E-6;0;Intelsat
1.0022701;0.0006735;10.5709;35.1133;332.1334;205.567;0;-2.43E-6;0;Intelsat
1.00226653;0.0006724;10.5724;35.1021;332.0911;33.6191;0;-2.44E-6;0;Intelsat
1.00226406;0.0006702;10.5734;35.0949;332.1121;26.5551;0;-2.44E-6;0;Intelsat
1.00226153;0.0006697;10.5743;35.0873;332.1888;29.093;0;-2.44E-6;0;Intelsat
1.0022603;0.0006692;10.5748;35.0837;332.2834;210.2875;0;-2.44E-6;0;Intelsat
1.00225897;0.0006686;10.5753;35.08;332.2868;31.6114;0;-2.44E-6;0;Intelsat
1.00225658;0.0006676;10.5763;35.0725;332.4157;34.096;0;-2.44E-6;0;Intelsat
1.00225537;0.000667;10.5768;35.0688;332.5247;215.3036;0;-2.43E-6;0;Intelsat
1.00225402;0.0006659;10.5773;35.0651;332.575;36.5592;0;-2.43E-6;0;Intelsat
1.00225147;0.0006642;10.5783;35.0577;332.7493;39.0116;0;-2.42E-6;0;Intelsat
1.00224911;0.0006638;10.5793;35.0507;332.9557;15.5623;0;-2.41E-6;0;Intelsat
1.00224896;0.0006639;10.5793;35.0502;332.9614;41.4144;0;-2.41E-6;0;Intelsat
1.00224545;0.0006614;10.5808;35.0396;333.2709;199.1639;0;-2.39E-6;0;Intelsat
1.00224433;0.0006596;10.5813;35.0359;333.3838;20.3498;0;-2.39E-6;0;Intelsat
1.00224305;0.0006592;10.5818;35.0321;333.4898;207.5185;0;-2.38E-6;0;Intelsat
1.00223937;0.000655;10.5833;35.021;333.8349;25.1412;0;-2.37E-6;0;Intelsat
1.00223696;0.0006524;10.5843;35.0136;334.0393;27.5354;0;-2.37E-6;0;Intelsat
1.00223559;0.0006515;10.5848;35.0097;334.124;214.3496;0;-2.37E-6;0;Intelsat
1.00223312;0.0006478;10.5858;35.0023;334.2981;211.1814;0;-2.39E-6;0;Intelsat
1.00223068;0.0006434;10.5867;34.9952;334.4622;187.7556;0;-2.4E-6;0;Intelsat
1.0022283;0.0006397;10.5877;34.9876;334.5986;190.2272;0;-2.42E-6;0;Intelsat
1.00222818;0.0006391;10.5878;34.9871;334.6064;216.0916;0;-2.42E-6;0;Intelsat
